KUIPER-00027            
1 63740U 25088S   25199.06502305  .00014803  00000+0  40058-3 0  9995
2 63740  51.8712  70.7623 0002173  72.4885 287.6339 15.37911322 12621
KUIPER-00028            
1 63741U 25088T   25199.05680576  .00015042  00000+0  40546-3 0  9990
2 63741  51.8703  70.7052 0001904  56.6833 303.4336 15.38018622 13038
KUIPER-00029            
1 63742U 25088U   25198.06407104  .00010858  00000+0  30750-3 0  9991
2 63742  51.8694  76.0343 0005169  47.7977 312.3448 15.36792320 12402
KUIPER-00030            
1 63743U 25088V   25199.25002315 -.00948208  00000+0 -48718-1 0  9991
2 63743  51.8813  72.7342 0010763  34.0285 328.5653 15.18673582 12837
KUIPER-00031            
1 63744U 25088W   25198.03730253  .00009158  00000+0  25531-3 0  9996
2 63744  51.8693  75.8644 0004288  44.5804 315.5527 15.37497077 12404
KUIPER-00032            
1 63745U 25088X   25198.05237634  .00009038  00000+0  25416-3 0  9993
2 63745  51.8697  75.9546 0004861  34.8418 325.2886 15.37241525 13403
KUIPER-00033            
1 63746U 25088Y   25198.91667824 -.00027613  00000+0 -36170-2 0  9996
2 63746  51.9003  84.7557 0003549 107.3932  19.5582 14.79821334  5207
KUIPER-00034            
1 63747U 25088Z   25199.05929542  .00012063  00000+0  33120-3 0  9995
2 63747  51.8709  70.7228 0002371  66.3698 293.7538 15.37653856 12724
